STARLINK-35662          
1 66384U 25257E   25327.83335647 -.02027439  00000+0 -16285-1 0  9997
2 66384  53.1580 354.7178 0001100  97.6966 204.6689 15.73339270  3458
STARLINK-35659          
1 66385U 25257F   25327.83335647 -.01981950  00000+0 -15886-1 0  9990
2 66385  53.1581 354.7251 0001285 108.6424 189.8828 15.73316663  3458
STARLINK-35651          
1 66386U 25257G   25327.83335647 -.01961880  00000+0 -15719-1 0  9996
2 66386  53.1583 354.7132 0000803  91.4243 212.8645 15.73299439  3457
STARLINK-35661          
1 66387U 25257H   25327.83335647 -.01913370  00000+0 -15637-1 0  9997
2 66387  53.1585 354.7090 0001111 144.0718 162.1294 15.73294545  3458
STARLINK-35647          
1 66388U 25257J   25327.83335647 -.01972983  00000+0 -15813-1 0  9999
2 66388  53.1584 354.7051 0000579  94.1056 214.0057 15.73311439  3458
STARLINK-35694          
1 66389U 25257K   25327.83335647 -.01970844  00000+0 -15793-1 0  9991
2 66389  53.1585 354.7006 0001014 123.3557 186.6759 15.73307262  3458
STARLINK-35665          
1 66390U 25257L   25327.83335647 -.02014376  00000+0 -16162-1 0  9994
2 66390  53.1587 354.6292 0000620  61.9951 282.5067 15.73349818  3557
STARLINK-35656          
1 66391U 25257M   25327.83335647 -.02125698  00000+0 -18359-1 0  9995
2 66391  53.1574 354.3006 0001296  78.8180  64.8122 15.71808698  3552
STARLINK-35671          
1 66392U 25257N   25327.83335647 -.01977440  00000+0 -15849-1 0  9996
2 66392  53.1582 354.6929 0000802 108.1776 205.6806 15.73316027  3454
STARLINK-35652          
1 66393U 25257P   25327.83335647 -.01971353  00000+0 -15798-1 0  9997
2 66393  53.1586 354.6969 0000769  98.3747 213.5735 15.73309099  3453
STARLINK-35672          
1 66394U 25257Q   25327.83335647 -.01968270  00000+0 -15774-1 0  9996
2 66394  53.1584 354.6886 0000808  91.9253 223.8630 15.73303725  3453
STARLINK-35681          
1 66395U 25257R   25327.83335647 -.01986319  00000+0 -15919-1 0  9992
2 66395  53.1585 354.6854 0001009  86.1751 231.5026 15.73328189  3291
