CCSDS_OMM_VERS = 2.0
CREATION_DATE  = 
ORIGINATOR     = 

OBJECT_NAME    = STARLINK-35662
OBJECT_ID      = 2025-257E
CENTER_NAME    = EARTH
REF_FRAME      = TEME
TIME_SYSTEM    = UTC
MEAN_ELEMENT_THEORY = SGP/SGP4

EPOCH          = 2025-11-23T20:00:01.999008
MEAN_MOTION    = 15.73339270
ECCENTRICITY   = .00011
INCLINATION    = 53.1580
RA_OF_ASC_NODE = 354.7178
ARG_OF_PERICENTER = 97.6966
MEAN_ANOMALY   = 204.6689

EPHEMERIS_TYPE = 0
CLASSIFICATION_TYPE = U
NORAD_CAT_ID   = 66384
ELEMENT_SET_NO = 999
REV_AT_EPOCH   = 345
BSTAR          = -.16285E-1
MEAN_MOTION_DOT = -.2027439E-1
MEAN_MOTION_DDOT = 0

CCSDS_OMM_VERS = 2.0
CREATION_DATE  = 
ORIGINATOR     = 

OBJECT_NAME    = STARLINK-35659
OBJECT_ID      = 2025-257F
CENTER_NAME    = EARTH
REF_FRAME      = TEME
TIME_SYSTEM    = UTC
MEAN_ELEMENT_THEORY = SGP/SGP4

EPOCH          = 2025-11-23T20:00:01.999008
MEAN_MOTION    = 15.73316663
ECCENTRICITY   = .0001285
INCLINATION    = 53.1581
RA_OF_ASC_NODE = 354.7251
ARG_OF_PERICENTER = 108.6424
MEAN_ANOMALY   = 189.8828

EPHEMERIS_TYPE = 0
CLASSIFICATION_TYPE = U
NORAD_CAT_ID   = 66385
ELEMENT_SET_NO = 999
REV_AT_EPOCH   = 345
BSTAR          = -.15886E-1
MEAN_MOTION_DOT = -.198195E-1
MEAN_MOTION_DDOT = 0

CCSDS_OMM_VERS = 2.0
CREATION_DATE  = 
ORIGINATOR     = 

OBJECT_NAME    = STARLINK-35651
OBJECT_ID      = 2025-257G
CENTER_NAME    = EARTH
REF_FRAME      = TEME
TIME_SYSTEM    = UTC
MEAN_ELEMENT_THEORY = SGP/SGP4

EPOCH          = 2025-11-23T20:00:01.999008
MEAN_MOTION    = 15.73299439
ECCENTRICITY   = .0000803
INCLINATION    = 53.1583
RA_OF_ASC_NODE = 354.7132
ARG_OF_PERICENTER = 91.4243
MEAN_ANOMALY   = 212.8645

EPHEMERIS_TYPE = 0
CLASSIFICATION_TYPE = U
NORAD_CAT_ID   = 66386
ELEMENT_SET_NO = 999
REV_AT_EPOCH   = 345
BSTAR          = -.15719E-1
MEAN_MOTION_DOT = -.196188E-1
MEAN_MOTION_DDOT = 0

CCSDS_OMM_VERS = 2.0
CREATION_DATE  = 
ORIGINATOR     = 

OBJECT_NAME    = STARLINK-35661
OBJECT_ID      = 2025-257H
CENTER_NAME    = EARTH
REF_FRAME      = TEME
TIME_SYSTEM    = UTC
MEAN_ELEMENT_THEORY = SGP/SGP4

EPOCH          = 2025-11-23T20:00:01.999008
MEAN_MOTION    = 15.73294545
ECCENTRICITY   = .0001111
INCLINATION    = 53.1585
RA_OF_ASC_NODE = 354.7090
ARG_OF_PERICENTER = 144.0718
MEAN_ANOMALY   = 162.1294

EPHEMERIS_TYPE = 0
CLASSIFICATION_TYPE = U
NORAD_CAT_ID   = 66387
ELEMENT_SET_NO = 999
REV_AT_EPOCH   = 345
BSTAR          = -.15637E-1
MEAN_MOTION_DOT = -.191337E-1
MEAN_MOTION_DDOT = 0

CCSDS_OMM_VERS = 2.0
CREATION_DATE  = 
ORIGINATOR     = 

OBJECT_NAME    = STARLINK-35647
OBJECT_ID      = 2025-257J
CENTER_NAME    = EARTH
REF_FRAME      = TEME
TIME_SYSTEM    = UTC
MEAN_ELEMENT_THEORY = SGP/SGP4

EPOCH          = 2025-11-23T20:00:01.999008
MEAN_MOTION    = 15.73311439
ECCENTRICITY   = .0000579
INCLINATION    = 53.1584
RA_OF_ASC_NODE = 354.7051
ARG_OF_PERICENTER = 94.1056
MEAN_ANOMALY   = 214.0057

EPHEMERIS_TYPE = 0
CLASSIFICATION_TYPE = U
NORAD_CAT_ID   = 66388
ELEMENT_SET_NO = 999
REV_AT_EPOCH   = 345
BSTAR          = -.15813E-1
MEAN_MOTION_DOT = -.1972983E-1
MEAN_MOTION_DDOT = 0

CCSDS_OMM_VERS = 2.0
CREATION_DATE  = 
ORIGINATOR     = 

OBJECT_NAME    = STARLINK-35694
OBJECT_ID      = 2025-257K
CENTER_NAME    = EARTH
REF_FRAME      = TEME
TIME_SYSTEM    = UTC
MEAN_ELEMENT_THEORY = SGP/SGP4

EPOCH          = 2025-11-23T20:00:01.999008
MEAN_MOTION    = 15.73307262
ECCENTRICITY   = .0001014
INCLINATION    = 53.1585
RA_OF_ASC_NODE = 354.7006
ARG_OF_PERICENTER = 123.3557
MEAN_ANOMALY   = 186.6759

EPHEMERIS_TYPE = 0
CLASSIFICATION_TYPE = U
NORAD_CAT_ID   = 66389
ELEMENT_SET_NO = 999
REV_AT_EPOCH   = 345
BSTAR          = -.15793E-1
MEAN_MOTION_DOT = -.1970844E-1
MEAN_MOTION_DDOT = 0

CCSDS_OMM_VERS = 2.0
CREATION_DATE  = 
ORIGINATOR     = 

OBJECT_NAME    = STARLINK-35665
OBJECT_ID      = 2025-257L
CENTER_NAME    = EARTH
REF_FRAME      = TEME
TIME_SYSTEM    = UTC
MEAN_ELEMENT_THEORY = SGP/SGP4

EPOCH          = 2025-11-23T20:00:01.999008
MEAN_MOTION    = 15.73349818
ECCENTRICITY   = .000062
INCLINATION    = 53.1587
RA_OF_ASC_NODE = 354.6292
ARG_OF_PERICENTER = 61.9951
MEAN_ANOMALY   = 282.5067

EPHEMERIS_TYPE = 0
CLASSIFICATION_TYPE = U
NORAD_CAT_ID   = 66390
ELEMENT_SET_NO = 999
REV_AT_EPOCH   = 355
BSTAR          = -.16162E-1
MEAN_MOTION_DOT = -.2014376E-1
MEAN_MOTION_DDOT = 0

CCSDS_OMM_VERS = 2.0
CREATION_DATE  = 
ORIGINATOR     = 

OBJECT_NAME    = STARLINK-35656
OBJECT_ID      = 2025-257M
CENTER_NAME    = EARTH
REF_FRAME      = TEME
TIME_SYSTEM    = UTC
MEAN_ELEMENT_THEORY = SGP/SGP4

EPOCH          = 2025-11-23T20:00:01.999008
MEAN_MOTION    = 15.71808698
ECCENTRICITY   = .0001296
INCLINATION    = 53.1574
RA_OF_ASC_NODE = 354.3006
ARG_OF_PERICENTER = 78.8180
MEAN_ANOMALY   = 64.8122

EPHEMERIS_TYPE = 0
CLASSIFICATION_TYPE = U
NORAD_CAT_ID   = 66391
ELEMENT_SET_NO = 999
REV_AT_EPOCH   = 355
BSTAR          = -.18359E-1
MEAN_MOTION_DOT = -.2125698E-1
MEAN_MOTION_DDOT = 0

CCSDS_OMM_VERS = 2.0
CREATION_DATE  = 
ORIGINATOR     = 

OBJECT_NAME    = STARLINK-35671
OBJECT_ID      = 2025-257N
CENTER_NAME    = EARTH
REF_FRAME      = TEME
TIME_SYSTEM    = UTC
MEAN_ELEMENT_THEORY = SGP/SGP4

EPOCH          = 2025-11-23T20:00:01.999008
MEAN_MOTION    = 15.73316027
ECCENTRICITY   = .0000802
INCLINATION    = 53.1582
RA_OF_ASC_NODE = 354.6929
ARG_OF_PERICENTER = 108.1776
MEAN_ANOMALY   = 205.6806

EPHEMERIS_TYPE = 0
CLASSIFICATION_TYPE = U
NORAD_CAT_ID   = 66392
ELEMENT_SET_NO = 999
REV_AT_EPOCH   = 345
BSTAR          = -.15849E-1
MEAN_MOTION_DOT = -.197744E-1
MEAN_MOTION_DDOT = 0

CCSDS_OMM_VERS = 2.0
CREATION_DATE  = 
ORIGINATOR     = 

OBJECT_NAME    = STARLINK-35652
OBJECT_ID      = 2025-257P
CENTER_NAME    = EARTH
REF_FRAME      = TEME
TIME_SYSTEM    = UTC
MEAN_ELEMENT_THEORY = SGP/SGP4

EPOCH          = 2025-11-23T20:00:01.999008
MEAN_MOTION    = 15.73309099
ECCENTRICITY   = .0000769
INCLINATION    = 53.1586
RA_OF_ASC_NODE = 354.6969
ARG_OF_PERICENTER = 98.3747
MEAN_ANOMALY   = 213.5735

EPHEMERIS_TYPE = 0
CLASSIFICATION_TYPE = U
NORAD_CAT_ID   = 66393
ELEMENT_SET_NO = 999
REV_AT_EPOCH   = 345
BSTAR          = -.15798E-1
MEAN_MOTION_DOT = -.1971353E-1
MEAN_MOTION_DDOT = 0

CCSDS_OMM_VERS = 2.0
CREATION_DATE  = 
ORIGINATOR     = 

OBJECT_NAME    = STARLINK-35672
OBJECT_ID      = 2025-257Q
CENTER_NAME    = EARTH
REF_FRAME      = TEME
TIME_SYSTEM    = UTC
MEAN_ELEMENT_THEORY = SGP/SGP4

EPOCH          = 2025-11-23T20:00:01.999008
MEAN_MOTION    = 15.73303725
ECCENTRICITY   = .0000808
INCLINATION    = 53.1584
RA_OF_ASC_NODE = 354.6886
ARG_OF_PERICENTER = 91.9253
MEAN_ANOMALY   = 223.8630

EPHEMERIS_TYPE = 0
CLASSIFICATION_TYPE = U
NORAD_CAT_ID   = 66394
ELEMENT_SET_NO = 999
REV_AT_EPOCH   = 345
BSTAR          = -.15774E-1
MEAN_MOTION_DOT = -.196827E-1
MEAN_MOTION_DDOT = 0

CCSDS_OMM_VERS = 2.0
CREATION_DATE  = 
ORIGINATOR     = 

OBJECT_NAME    = STARLINK-35681
OBJECT_ID      = 2025-257R
CENTER_NAME    = EARTH
REF_FRAME      = TEME
TIME_SYSTEM    = UTC
MEAN_ELEMENT_THEORY = SGP/SGP4

EPOCH          = 2025-11-23T20:00:01.999008
MEAN_MOTION    = 15.73328189
ECCENTRICITY   = .0001009
INCLINATION    = 53.1585
RA_OF_ASC_NODE = 354.6854
ARG_OF_PERICENTER = 86.1751
MEAN_ANOMALY   = 231.5026

EPHEMERIS_TYPE = 0
CLASSIFICATION_TYPE = U
NORAD_CAT_ID   = 66395
ELEMENT_SET_NO = 999
REV_AT_EPOCH   = 329
BSTAR          = -.15919E-1
MEAN_MOTION_DOT = -.1986319E-1
MEAN_MOTION_DDOT = 0

